{"type": "FeatureCollection", "features": [ {"type": "Feature", "properties": {"norad_id": 66738, "name": "FLOCK 4H-35", "group": "last-30-days", "lat": 29.02954679446191, "lon": 68.94454798307218, "alt_km": 510.26907101571396, "timestamp": "2025-12-27T13:34:48.006565+00:00", "meta": {"OBJECT_NAME": "FLOCK 4H-35", "OBJECT_ID": "2025-276CA", "EPOCH": "2025-12-27T05:32:33.850176", "MEAN_MOTION": 15.18302679, "ECCENTRICITY": 0.00026764, "INCLINATION": 97.4395, "RA_OF_ASC_NODE": 72.7739, "ARG_OF_PERICENTER": 140.0561, "MEAN_ANOMALY": 220.0871, "EPHEMERIS_TYPE": 0, "CLASSIFICATION_TYPE": "U", "NORAD_CAT_ID": 66738, "ELEMENT_SET_NO": 999, "REV_AT_EPOCH": 361, "BSTAR": 0.00053560663, "MEAN_MOTION_DOT": 0.00010927, "MEAN_MOTION_DDOT": 0}, "tle": {"line1": "1 66738U 25276CA  25361.23094734  .00010927  00000+0  53561-3 0  9992", "line2": "2 66738  97.4395  72.7739 0002676 140.0561 220.0871 15.18302679  3614"}}, "geometry": {"type": "Point", "coordinates": [68.94454798307218, 29.02954679446191]}}, {"type": "Feature", "properties": {"norad_id": 66739, "name": "FLOCK 4H-36", "group": "last-30-days", "lat": 2.9637557137390824, "lon": 72.7234797019121, "alt_km": 516.2286310236632, "timestamp": "2025-12-27T13:34:48.006575+00:00", "meta": {"OBJECT_NAME": "FLOCK 4H-36", "OBJECT_ID": "2025-276CB", "EPOCH": "2025-12-27T05:39:25.149600", "MEAN_MOTION": 15.18054709, "ECCENTRICITY": 0.00027382, "INCLINATION": 97.4442, "RA_OF_ASC_NODE": 72.7866, "ARG_OF_PERICENTER": 171.1617, "MEAN_ANOMALY": 188.9666, "EPHEMERIS_TYPE": 0, "CLASSIFICATION_TYPE": "U", "NORAD_CAT_ID": 66739, "ELEMENT_SET_NO": 999, "REV_AT_EPOCH": 432, "BSTAR": 0.00053139432, "MEAN_MOTION_DOT": 0.00010763, "MEAN_MOTION_DDOT": 0}, "tle": {"line1": "1 66739U 25276CB  25361.23570775  .00010763  00000+0  53139-3 0  9996", "line2": "2 66739  97.4442  72.7866 0002738 171.1617 188.9666 15.18054709  4326"}}, "geometry": {"type": "Point", "coordinates": [72.7234797019121, 2.9637557137390824]}}, {"type": "Feature", "properties": {"norad_id": 66740, "name": "TRANSPORTER-15CC", "group": "last-30-days", "lat": -27.46970589463467, "lon": 76.98294623403805, "alt_km": 519.1693138534556, "timestamp": "2025-12-27T13:34:48.006588+00:00", "meta": {"OBJECT_NAME": "TRANSPORTER-15CC", "OBJECT_ID": "2025-276CC", "EPOCH": "2025-12-27T05:47:26.267136", "MEAN_MOTION": 15.17782071, "ECCENTRICITY": 0.00023936, "INCLINATION": 97.4403, "RA_OF_ASC_NODE": 72.7682, "ARG_OF_PERICENTER": 215.056, "MEAN_ANOMALY": 145.0517, "EPHEMERIS_TYPE": 0, "CLASSIFICATION_TYPE": "U", "NORAD_CAT_ID": 66740, "ELEMENT_SET_NO": 999, "REV_AT_EPOCH": 432, "BSTAR": 0.00052505031, "MEAN_MOTION_DOT": 0.0001055, "MEAN_MOTION_DDOT": 0}, "tle": {"line1": "1 66740U 25276CC  25361.24127624  .00010550  00000+0  52505-3 0  9990", "line2": "2 66740  97.4403  72.7682 0002393 215.0560 145.0517 15.17782071  4321"}}, "geometry": {"type": "Point", "coordinates": [76.98294623403805, -27.46970589463467]}}, {"type": "Feature", "properties": {"norad_id": 66741, "name": "TRANSPORTER-15CD", "group": "last-30-days", "lat": -34.44623620613913, "lon": 78.2183233029206, "alt_km": 519.6915096691373, "timestamp": "2025-12-27T13:34:48.006598+00:00", "meta": {"OBJECT_NAME": "TRANSPORTER-15CD", "OBJECT_ID": "2025-276CD", "EPOCH": "2025-12-27T05:49:15.766176", "MEAN_MOTION": 15.17661307, "ECCENTRICITY": 0.00013056, "INCLINATION": 97.4403, "RA_OF_ASC_NODE": 72.758, "ARG_OF_PERICENTER": 203.3782, "MEAN_ANOMALY": 156.7393, "EPHEMERIS_TYPE": 0, "CLASSIFICATION_TYPE": "U", "NORAD_CAT_ID": 66741, "ELEMENT_SET_NO": 999, "REV_AT_EPOCH": 432, "BSTAR": 0.00021590549, "MEAN_MOTION_DOT": 4.281e-05, "MEAN_MOTION_DDOT": 0}, "tle": {"line1": "1 66741U 25276CD  25361.24254359  .00004281  00000+0  21591-3 0  9992", "line2": "2 66741  97.4403  72.7580 0001305 203.3782 156.7393 15.17661307  4326"}}, "geometry": {"type": "Point", "coordinates": [78.2183233029206, -34.44623620613913]}}, {"type": "Feature", "properties": {"norad_id": 66742, "name": "TRANSPORTER-15CE", "group": "last-30-days", "lat": -24.805441198082057, "lon": 76.53972154879537, "alt_km": 519.6221925983418, "timestamp": "2025-12-27T13:34:48.006608+00:00", "meta": {"OBJECT_NAME": "TRANSPORTER-15CE", "OBJECT_ID": "2025-276CE", "EPOCH": "2025-12-27T05:46:43.150944", "MEAN_MOTION": 15.17755097, "ECCENTRICITY": 0.0002079, "INCLINATION": 97.4396, "RA_OF_ASC_NODE": 72.7579, "ARG_OF_PERICENTER": 175.6518, "MEAN_ANOMALY": 184.4734, "EPHEMERIS_TYPE": 0, "CLASSIFICATION_TYPE": "U", "NORAD_CAT_ID": 66742, "ELEMENT_SET_NO": 999, "REV_AT_EPOCH": 432, "BSTAR": 0.00051774967, "MEAN_MOTION_DOT": 0.00010394, "MEAN_MOTION_DDOT": 0}, "tle": {"line1": "1 66742U 25276CE  25361.24077721  .00010394  00000+0  51775-3 0  9998", "line2": "2 66742  97.4396  72.7579 0002079 175.6518 184.4734 15.17755097  4320"}}, "geometry": {"type": "Point", "coordinates": [76.53972154879537, -24.805441198082057]}}, {"type": "Feature", "properties": {"norad_id": 66743, "name": "TRANSPORTER-15CF", "group": "last-30-days", "lat": -46.98239645143861, "lon": 81.11772910503984, "alt_km": 520.2844948646061, "timestamp": "2025-12-27T13:34:48.006618+00:00", "meta": {"OBJECT_NAME": "TRANSPORTER-15CF", "OBJECT_ID": "2025-276CF", "EPOCH": "2025-12-27T04:17:38.961024", "MEAN_MOTION": 15.1757527, "ECCENTRICITY": 9.31e-05, "INCLINATION": 97.4396, "RA_OF_ASC_NODE": 72.6874, "ARG_OF_PERICENTER": 198.1721, "MEAN_ANOMALY": 161.9479, "EPHEMERIS_TYPE": 0, "CLASSIFICATION_TYPE": "U", "NORAD_CAT_ID": 66743, "ELEMENT_SET_NO": 999, "REV_AT_EPOCH": 431, "BSTAR": 0.00039742552, "MEAN_MOTION_DOT": 7.919e-05, "MEAN_MOTION_DDOT": 0}, "tle": {"line1": "1 66743U 25276CF  25361.17892316  .00007919  00000+0  39743-3 0  9996", "line2": "2 66743  97.4396  72.6874 0000931 198.1721 161.9479 15.17575270  4317"}}, "geometry": {"type": "Point", "coordinates": [81.11772910503984, -46.98239645143861]}}, {"type": "Feature", "properties": {"norad_id": 66744, "name": "TRANSPORTER-15CG", "group": "last-30-days", "lat": -13.855324414556438, "lon": 74.87365139658831, "alt_km": 521.5428039019043, "timestamp": "2025-12-27T13:34:48.006628+00:00", "meta": {"OBJECT_NAME": "TRANSPORTER-15CG", "OBJECT_ID": "2025-276CG", "EPOCH": "2025-12-27T07:19:09.166944", "MEAN_MOTION": 15.19396478, "ECCENTRICITY": 0.00244677, "INCLINATION": 97.3864, "RA_OF_ASC_NODE": 72.7849, "ARG_OF_PERICENTER": 223.8381, "MEAN_ANOMALY": 136.0913, "EPHEMERIS_TYPE": 0, "CLASSIFICATION_TYPE": "U", "NORAD_CAT_ID": 66744, "ELEMENT_SET_NO": 999, "REV_AT_EPOCH": 433, "BSTAR": 0.00065514069, "MEAN_MOTION_DOT": 0.00013922, "MEAN_MOTION_DDOT": 0}, "tle": {"line1": "1 66744U 25276CG  25361.30496721  .00013922  00000+0  65514-3 0  9998", "line2": "2 66744  97.3864  72.7849 0024467 223.8381 136.0913 15.19396478  4339"}}, "geometry": {"type": "Point", "coordinates": [74.87365139658831, -13.855324414556438]}}, {"type": "Feature", "properties": {"norad_id": 66745, "name": "TRANSPORTER-15CH", "group": "last-30-days", "lat": -50.97927522234391, "lon": 82.3497199332533, "alt_km": 521.1635785433136, "timestamp": "2025-12-27T13:34:48.006638+00:00", "meta": {"OBJECT_NAME": "TRANSPORTER-15CH", "OBJECT_ID": "2025-276CH", "EPOCH": "2025-12-27T05:53:37.759488", "MEAN_MOTION": 15.17421643, "ECCENTRICITY": 0.00014256, "INCLINATION": 97.4404, "RA_OF_ASC_NODE": 72.7549, "ARG_OF_PERICENTER": 184.9719, "MEAN_ANOMALY": 175.1501, "EPHEMERIS_TYPE": 0, "CLASSIFICATION_TYPE": "U", "NORAD_CAT_ID": 66745, "ELEMENT_SET_NO": 999, "REV_AT_EPOCH": 432, "BSTAR": 0.00015843563, "MEAN_MOTION_DOT": 3.101e-05, "MEAN_MOTION_DDOT": 0}, "tle": {"line1": "1 66745U 25276CH  25361.24557592  .00003101  00000+0  15844-3 0  9995", "line2": "2 66745  97.4404  72.7549 0001425 184.9719 175.1501 15.17421643  4326"}}, "geometry": {"type": "Point", "coordinates": [82.3497199332533, -50.97927522234391]}}, {"type": "Feature", "properties": {"norad_id": 66746, "name": "TRANSPORTER-15CJ", "group": "last-30-days", "lat": -22.804921431613632, "lon": 76.22279220592134, "alt_km": 520.7430516969062, "timestamp": "2025-12-27T13:34:48.006648+00:00", "meta": {"OBJECT_NAME": "TRANSPORTER-15CJ", "OBJECT_ID": "2025-276CJ", "EPOCH": "2025-12-27T05:46:44.191200", "MEAN_MOTION": 15.19504664, "ECCENTRICITY": 0.00134953, "INCLINATION": 97.3829, "RA_OF_ASC_NODE": 72.7797, "ARG_OF_PERICENTER": 189.5913, "MEAN_ANOMALY": 170.5066, "EPHEMERIS_TYPE": 0, "CLASSIFICATION_TYPE": "U", "NORAD_CAT_ID": 66746, "ELEMENT_SET_NO": 999, "REV_AT_EPOCH": 432, "BSTAR": 0.00090326898, "MEAN_MOTION_DOT": 0.0001919, "MEAN_MOTION_DDOT": 0}, "tle": {"line1": "1 66746U 25276CJ  25361.24078925  .00019190  00000+0  90327-3 0  9998", "line2": "2 66746  97.3829  72.7797 0013495 189.5913 170.5066 15.19504664  4321"}}, "geometry": {"type": "Point", "coordinates": [76.22279220592134, -22.804921431613632]}}, {"type": "Feature", "properties": {"norad_id": 66747, "name": "W-SERIES 5", "group": "last-30-days", "lat": -38.59702214833653, "lon": 79.06419474949395, "alt_km": 520.4801642883458, "timestamp": "2025-12-27T13:34:48.006660+00:00", "meta": {"OBJECT_NAME": "W-SERIES 5", "OBJECT_ID": "2025-276CK", "EPOCH": "2025-12-27T05:50:21.047424", "MEAN_MOTION": 15.17581839, "ECCENTRICITY": 0.0001667, "INCLINATION": 97.4405, "RA_OF_ASC_NODE": 72.7596, "ARG_OF_PERICENTER": 185.6769, "MEAN_ANOMALY": 174.4446, "EPHEMERIS_TYPE": 0, "CLASSIFICATION_TYPE": "U", "NORAD_CAT_ID": 66747, "ELEMENT_SET_NO": 999, "REV_AT_EPOCH": 432, "BSTAR": 0.00047350048, "MEAN_MOTION_DOT": 9.451e-05, "MEAN_MOTION_DDOT": 0}, "tle": {"line1": "1 66747U 25276CK  25361.24329916  .00009451  00000+0  47350-3 0  9995", "line2": "2 66747  97.4405  72.7596 0001667 185.6769 174.4446 15.17581839  4326"}}, "geometry": {"type": "Point", "coordinates": [79.06419474949395, -38.59702214833653]}}]}